$$SOE
2460154.500000000, A.D. 2023-Jul-29 00:00:00.0000, 1.911584131076402E+08, -2.145803228089007E+08, 3.560829810167682E+07,
2460161.500000000, A.D. 2023-Aug-05 00:00:00.0000, 1.972663942972455E+08, -2.068197863050327E+08, 3.480146230189921E+07,
2460168.500000000, A.D. 2023-Aug-12 00:00:00.0000, 2.029730681964221E+08, -1.986385897326951E+08, 3.392384003777272E+07,
2460175.500000000, A.D. 2023-Aug-19 00:00:00.0000, 2.082585133504502E+08, -1.900452532809124E+08, 3.297582904290528E+07,
2460182.500000000, A.D. 2023-Aug-26 00:00:00.0000, 2.131018215729327E+08, -1.810485527896207E+08, 3.195782462932121E+07,
2460189.500000000, A.D. 2023-Sep-02 00:00:00.0000, 2.174809696103265E+08, -1.716576271006305E+08, 3.087022921238837E+07,
2460196.500000000, A.D. 2023-Sep-09 00:00:00.0000, 2.213726799706982E+08, -1.618821017134610E+08, 2.971346356480020E+07,
2460203.500000000, A.D. 2023-Sep-16 00:00:00.0000, 2.247522695012366E+08, -1.517322325796089E+08, 2.848798023680417E+07,
2460210.500000000, A.D. 2023-Sep-23 00:00:00.0000, 2.275934844414990E+08, -1.412190744042795E+08, 2.719427969403747E+07,
2460217.500000000, A.D. 2023-Sep-30 00:00:00.0000, 2.298683198597793E+08, -1.303546780258662E+08, 2.583293000756627E+07,
2460224.500000000, A.D. 2023-Oct-07 00:00:00.0000, 2.315468193610626E+08, -1.191523245790960E+08, 2.440459115357504E+07,
2460231.500000000, A.D. 2023-Oct-14 00:00:00.0000, 2.325968544542755E+08, -1.076268086949401E+08, 2.291004467827370E+07,
2460238.500000000, A.D. 2023-Oct-21 00:00:00.0000, 2.329838854607236E+08, -9.579478036066470E+07, 2.135023000217580E+07,
2460245.500000000, A.D. 2023-Oct-28 00:00:00.0000, 2.326707018006431E+08, -8.367515735914335E+07, 1.972628953731246E+07,
2460252.500000000, A.D. 2023-Nov-04 00:00:00.0000, 2.316171407420675E+08, -7.128962702865054E+07, 1.803962507233221E+07,
2460259.500000000, A.D. 2023-Nov-11 00:00:00.0000, 2.297797869415558E+08, -5.866326077484246E+07, 1.629196847724102E+07,
2460266.500000000, A.D. 2023-Nov-18 00:00:00.0000, 2.271116581414108E+08, -4.582527045742368E+07, 1.448547075841846E+07,
2460273.500000000, A.D. 2023-Nov-25 00:00:00.0000, 2.235618870687936E+08, -3.280994362565769E+07, 1.262281474980073E+07,
2460280.500000000, A.D. 2023-Dec-02 00:00:00.0000, 2.190754172189474E+08, -1.965780463844518E+07, 1.070735834602301E+07,
2460287.500000000, A.D. 2023-Dec-09 00:00:00.0000, 2.135927423640098E+08, -6.417061216204476E+06, 8.743317280825000E+06,
2460294.500000000, A.D. 2023-Dec-16 00:00:00.0000, 2.070497387741241E+08, 6.854589039853374E+06, 6.735999137956223E+06,
2460301.500000000, A.D. 2023-Dec-23 00:00:00.0000, 1.993776686055470E+08, 2.008770106533507E+07, 4.692103703784209E+06,
2460308.500000000, A.D. 2023-Dec-30 00:00:00.0000, 1.905034767354610E+08, 3.319826519914436E+07, 2.620109018480860E+06,
2460315.500000000, A.D. 2024-Jan-06 00:00:00.0000, 1.803505725777544E+08, 4.608420445102741E+07, 5.307667024708819E+05,
2460322.500000000, A.D. 2024-Jan-13 00:00:00.0000, 1.688403981877155E+08, 5.862105976670936E+07, -1.562266304405671E+06,
2460329.500000000, A.D. 2024-Jan-20 00:00:00.0000, 1.558952362208645E+08, 7.065677387419412E+07, -3.641630443150014E+06,
2460336.500000000, A.D. 2024-Jan-27 00:00:00.0000, 1.414429256108577E+08, 8.200558491914135E+07, -5.685277094497196E+06,
2460343.500000000, A.D. 2024-Feb-03 00:00:00.0000, 1.254244384671787E+08, 9.244128255268405E+07, -7.665291538283631E+06,
2460350.500000000, A.D. 2024-Feb-10 00:00:00.0000, 1.078055879433900E+08, 1.016905776097962E+08, -9.546578440091304E+06,
2460357.500000000, A.D. 2024-Feb-17 00:00:00.0000, 8.859434980632882E+07, 1.094282533883385E+08, -1.128557702075883E+07,
2460364.500000000, A.D. 2024-Feb-24 00:00:00.0000, 6.786504797066988E+07, 1.152772646277574E+08, -1.282938093620916E+07,
2460371.500000000, A.D. 2024-Mar-02 00:00:00.0000, 4.578928822782948E+07, 1.188189881148299E+08, -1.411595946492298E+07,
2460378.500000000, A.D. 2024-Mar-09 00:00:00.0000, 2.267000869089986E+07, 1.196206643664705E+08, -1.507655066486466E+07,
2460385.500000000, A.D. 2024-Mar-16 00:00:00.0000, -1.031314591111794E+06, 1.172865222460397E+08, -1.564145808244026E+07,
2460392.500000000, A.D. 2024-Mar-23 00:00:00.0000, -2.469172659925073E+07, 1.115324727797678E+08, -1.574987902726682E+07,
2460399.500000000, A.D. 2024-Mar-30 00:00:00.0000, -4.756757426723903E+07, 1.022693620773607E+08, -1.536248607386087E+07,
2460406.500000000, A.D. 2024-Apr-06 00:00:00.0000, -6.888562020240368E+07, 8.966261302283561E+07, -1.447272687535948E+07,
2460413.500000000, A.D. 2024-Apr-13 00:00:00.0000, -8.796287049320962E+07, 7.413357293786085E+07, -1.311142958795232E+07,
2460420.500000000, A.D. 2024-Apr-20 00:00:00.0000, -1.043096347331280E+08, 5.629248356776692E+07, -1.134169212842329E+07,
2460427.500000000, A.D. 2024-Apr-27 00:00:00.0000, -1.176759800725244E+08, 3.683026339772891E+07, -9.246201080604222E+06,
2460434.500000000, A.D. 2024-May-04 00:00:00.0000, -1.280346638583193E+08, 1.641413568631011E+07, -6.912715974840767E+06,
2460441.500000000, A.D. 2024-May-11 00:00:00.0000, -1.355241337021189E+08, -4.381250884870956E+06, -4.422800439213828E+06,
2460448.500000000, A.D. 2024-May-18 00:00:00.0000, -1.403824166045556E+08, -2.510148071660938E+07, -1.845700709614230E+06,
2460455.500000000, A.D. 2024-May-25 00:00:00.0000, -1.428920140368517E+08, -4.541012617359018E+07, 7.633910635725297E+05,
2460462.500000000, A.D. 2024-Jun-01 00:00:00.0000, -1.433423472182938E+08, -6.507136727803797E+07, 3.362411704669163E+06,
2460469.500000000, A.D. 2024-Jun-08 00:00:00.0000, -1.420080173571264E+08, -8.392831643603168E+07, 5.920346285295077E+06,
2460476.500000000, A.D. 2024-Jun-15 00:00:00.0000, -1.391383689956967E+08, -1.018828119407040E+08, 8.414925280622896E+06,
2460483.500000000, A.D. 2024-Jun-22 00:00:00.0000, -1.349540558096342E+08, -1.188788458451580E+08, 1.083054695015301E+07,
2460490.500000000, A.D. 2024-Jun-29 00:00:00.0000, -1.296474715907472E+08, -1.348898845219502E+08, 1.315657507745846E+07,
2460497.500000000, A.D. 2024-Jul-06 00:00:00.0000, -1.233850488147096E+08, -1.499095572876349E+08, 1.538601519279845E+07,
2460504.500000000, A.D. 2024-Jul-13 00:00:00.0000, -1.163102680350981E+08, -1.639449858494743E+08, 1.751451561599649E+07,
2460511.500000000, A.D. 2024-Jul-20 00:00:00.0000, -1.085467639209636E+08, -1.770120803877943E+08, 1.953962682113153E+07,
2460518.500000000, A.D. 2024-Jul-27 00:00:00.0000, -1.002012306556720E+08, -1.891322591474131E+08, 2.146025772910674E+07,
2460525.500000000, A.D. 2024-Aug-03 00:00:00.0000, -9.136600531121020E+07, -2.003301807910213E+08, 2.327627864393073E+07,
2460532.500000000, A.D. 2024-Aug-10 00:00:00.0000, -8.212130051342013E+07, -2.106321900516561E+08, 2.498823201616000E+07,
2460539.500000000, A.D. 2024-Aug-17 00:00:00.0000, -7.253710273295963E+07, -2.200652629512100E+08, 2.659712199321210E+07,
2460546.500000000, A.D. 2024-Aug-24 00:00:00.0000, -6.267477151315699E+07, -2.286563007723325E+08, 2.810426138723150E+07,
2460553.500000000, A.D. 2024-Aug-31 00:00:00.0000, -5.258838033219601E+07, -2.364316670007954E+08, 2.951116045847763E+07,
2460560.500000000, A.D. 2024-Sep-07 00:00:00.0000, -4.232583847900425E+07, -2.434168930391063E+08, 3.081944616822725E+07,
2460567.500000000, A.D. 2024-Sep-14 00:00:00.0000, -3.192982970600688E+07, -2.496364998941184E+08, 3.203080376056097E+07,
2460574.500000000, A.D. 2024-Sep-21 00:00:00.0000, -2.143860072391660E+07, -2.551138991826063E+08, 3.314693492830443E+07,
2460581.500000000, A.D. 2024-Sep-28 00:00:00.0000, -1.088662626992324E+07, -2.598713512980587E+08, 3.416952800056014E+07,
2460588.500000000, A.D. 2024-Oct-05 00:00:00.0000, -3.051689607951069E+05, -2.639299629381846E+08, 3.510023663722499E+07,
2460595.500000000, A.D. 2024-Oct-12 00:00:00.0000, 1.027724763119922E+07, -2.673097085229391E+08, 3.594066496696475E+07,
2460602.500000000, A.D. 2024-Oct-19 00:00:00.0000, 2.083443608413232E+07, -2.700294670383740E+08, 3.669235758269134E+07,
2460609.500000000, A.D. 2024-Oct-26 00:00:00.0000, 3.134220020124337E+07, -2.721070690611007E+08, 3.735679307513574E+07,
2460616.500000000, A.D. 2024-Nov-02 00:00:00.0000, 4.177803827635816E+07, -2.735593499638650E+08, 3.793538015756968E+07,
2460623.500000000, A.D. 2024-Nov-09 00:00:00.0000, 5.212088635210154E+07, -2.744022064392835E+08, 3.842945570166108E+07,
2460630.500000000, A.D. 2024-Nov-16 00:00:00.0000, 6.235089464458296E+07, -2.746506544067948E+08, 3.884028417458986E+07,
2460637.500000000, A.D. 2024-Nov-23 00:00:00.0000, 7.244923151736328E+07, -2.743188870778458E+08, 3.916905808844548E+07,
2460644.500000000, A.D. 2024-Nov-30 00:00:00.0000, 8.239791050660489E+07, -2.734203324331828E+08, 3.941689915943209E+07,
2460651.500000000, A.D. 2024-Dec-07 00:00:00.0000, 9.217963687874620E+07, -2.719677092523516E+08, 3.958485996834987E+07,
2460658.500000000, A.D. 2024-Dec-14 00:00:00.0000, 1.017776697152377E+08, -2.699730802828817E+08, 3.967392613702773E+07,
2460665.500000000, A.D. 2024-Dec-21 00:00:00.0000, 1.111756943912775E+08, -2.674479037837759E+08, 3.968501902590246E+07,
2460672.500000000, A.D. 2024-Dec-28 00:00:00.0000, 1.203577050137098E+08, -2.644030865424500E+08, 3.961899845673568E+07,
2460679.500000000, A.D. 2025-Jan-04 00:00:00.0000, 1.293078973359215E+08, -2.608490362350857E+08, 3.947666537246232E+07,
2460686.500000000, A.D. 2025-Jan-11 00:00:00.0000, 1.380105685069399E+08, -2.567957118102884E+08, 3.925876471572645E+07,
2460693.500000000, A.D. 2025-Jan-18 00:00:00.0000, 1.464500211190624E+08, -2.522526732323885E+08, 3.896598853159204E+07,
2460700.500000000, A.D. 2025-Jan-25 00:00:00.0000, 1.546104703375053E+08, -2.472291315514366E+08, 3.859897924543265E+07,
2460707.500000000, A.D. 2025-Feb-01 00:00:00.0000, 1.624759529613019E+08, -2.417339999019560E+08, 3.815833312334275E+07,
2460714.500000000, A.D. 2025-Feb-08 00:00:00.0000, 1.700302372180591E+08, -2.357759460704031E+08, 3.764460395307200E+07,
2460721.500000000, A.D. 2025-Feb-15 00:00:00.0000, 1.772567321193593E+08, -2.293634474095837E+08, 3.705830699700480E+07,
$$EOE